#aV2013 10 22  0  0  0.00000000     288 DD+AD WGS84 FIT  NGA
## 1763 172800.00000000   300.00000000 56587 0.0000000000000
+   31     1  2  3  4  5  6  7  8  9 10 11 12 13 14 15 16 17
+         18 19 20 21 22 23 24 25 26 27 28 29 31 32  0  0  0
+          0  0  0  0  0  0  0  0  0  0  0  0  0  0  0  0  0
+          0  0  0  0  0  0  0  0  0  0  0  0  0  0  0  0  0
+          0  0  0  0  0  0  0  0  0  0  0  0  0  0  0  0  0
++         2  2  2  2  2  2  2  2  2  2  2  2  2  2  2  2  2
++         2  2  2  2  2  2  2  2  2  2  2  2  2  2  2  0  0
++         0  0  0  0  0  0  0  0  0  0  0  0  0  0  0  0  0
++         0  0  0  0  0  0  0  0  0  0  0  0  0  0  0  0  0
++         0  0  0  0  0  0  0  0  0  0  0  0  0  0  0  0  0
%c cc cc ccc ccc cccc cccc cccc cccc ccccc ccccc ccccc ccccc
%c cc cc ccc ccc cccc cccc cccc cccc ccccc ccccc ccccc ccccc
%f  0.0000000  0.000000000  0.00000000000  0.000000000000000
%f  0.0000000  0.000000000  0.00000000000  0.000000000000000
%i    0    0    0    0      0      0      0      0         0
%i    0    0    0    0      0      0      0      0         0
/*      NGA, ST. LOUIS,MO.                                  
/*   EPHEMERIS COMPUTED FROM  1 DAYS OF DATA
/*   EPOCHA SMOOTHER  
/* CCCCCCCCCCCCCCCCCCCCCCCCCCCCCCCCCCCCCCCCCCCCCCCCCCCCCCCCC
*  2013 10 22  9 15  0.00000000                                                 
P  1  -2924.622393 -14991.848283 -21757.174978     87.259269                    
V  1  26576.780162  -7284.646770   1555.290805      0.035952                    
P  2 -19535.588832  14205.444246  10681.022356    457.064003                    
V  2 -13841.714790    729.569178 -27377.050482      0.017826                    
P  3   8228.634563 -23693.861863   7917.494191    275.906997                    
V  3   2513.689988  11170.058721  29048.197482      0.050219                    
P  4 -25990.323507   5784.324966  -2310.874278      2.353355                    
V  4   1544.495239  -3869.566372 -30889.637420      0.004941                    
P  5  -8741.768516  12936.920620  21442.887126   -398.719360                    
V  5 -19979.541343 -18699.821270   3284.857173      0.004790                    
P  6  13403.505474 -18229.716782  13649.799742    114.007455                    
V  6   -291.056179  17671.768575  24367.564045      0.179929                    
P  7 -18413.061250  -7657.492420  17766.384595    272.252226                    
V  7  21250.828216  -6786.425416  18852.356762      0.041863                    
P  8 -25320.849243  -1761.518153   8962.004808      9.310261                    
V  8  10668.467183  -2737.292646  29471.420718      0.003064                    
P  9 -25019.541380   1232.988271   8496.800979    277.362579                    
V  9  10496.948902  -5022.402098  29659.376183      0.028086                    
P 10 -20534.435369  -3774.797905  16343.458859    -98.864415                    
V 10 -13587.590580 -16431.138213 -20055.674890     -0.013002                    
P 11   3314.167144 -19626.106550 -17958.956923   -430.939085                    
V 11  20011.818576 -10084.516544  15363.952671     -0.035268                    
P 12   7747.806186  21378.283227 -13944.895290    163.543172                    
V 12 -13149.862838 -11632.714553 -25024.765836      0.022587                    
P 13  -7941.490731 -16148.541783  19354.652554     67.606333                    
V 13   9589.894766 -22957.214078 -15256.400429     -0.038003                    
P 14  15925.200126  -3016.952216 -20792.295053    212.718319                    
V 14  -7638.381663  25810.545809  -9639.123161     -0.009793                    
P 15  -2575.946921  25970.307127  -4101.061942   -143.215859                    
V 15  -4700.301382   4327.932450  30857.515163     -0.019090                    
P 16   8835.486113 -11869.063583  22002.760283   -243.868217                    
V 16  19270.895007  20269.005085   3517.707565      0.009685                    
P 17 -15731.706042   1950.298853 -21044.898677    -33.431257                    
V 17   6976.822214 -26383.712241  -7812.897102     -0.037062                    
P 18  20711.212528  16505.191602  -3294.598186    280.714277                    
V 18    882.501650   5819.585920  30403.208699      0.020871                    
P 19   7220.819341 -25226.632766  -2261.186288   -413.158679                    
V 19   3823.400059  -1581.961929  31923.122763     -0.026897                    
P 20 -12185.482062 -21159.519282 -10725.508167    131.169220                    
V 20  12243.071527   6323.161031 -26761.361201      0.027943                    
P 21  20935.592968   6342.136566  15986.109902   -324.770899                    
V 21 -17823.068173   7242.753210  20761.143284     -0.018221                    
P 22  21695.237446   6536.845923 -13774.143178    191.022134                    
V 22  10787.758024  14539.625521  23402.703715      0.017816                    
P 23  -2519.811546 -23464.442492  11865.189068     37.029711                    
V 23   6563.336690 -13874.467459 -26646.741869     -0.033915                    
P 24  -1901.023462  16016.785315 -21095.790052    -15.968169                    
V 24 -25914.087992   6868.869933   7606.960497     -0.007039                    
P 25  17851.926576  19577.977148  -2592.805218    159.789779                    
V 25  -3887.955566   -582.324554 -31770.322700      0.035740                    
P 26 -12764.612285  21799.628089   7010.414794    251.133974                    
V 26    876.468457 -10117.427458  30614.126193      0.191487                    
P 27  12522.544844 -21105.071577  10129.119412    -50.454970                    
V 27   -667.029960  13108.267582  28119.698860     -0.039829                    
P 28 -20798.358591 -11246.506513 -11675.713325    302.586872                    
V 28  -9262.834577 -12750.252299  27238.858724      0.030256                    
P 29   6395.594866  19371.382670  17064.906575    480.897675                    
V 29  -7833.566324  20158.437200 -19955.662838      0.031583                    
P 31  25826.339266  -6847.807179    371.934870    328.348529                    
V 31    740.208640   1850.204141 -31970.054693      0.007475                    
P 32  -1664.210651 -20493.607411 -16998.811048   -537.973401                    
V 32  15432.258159  15212.515810 -19201.851712      0.038105                    
EOF
